#dP2024  3  5  0  0  0.00000000      96 __u+U IGS20 FIT  IAC
## 2304 172800.00000000   900.00000000 60374 0.0000000000000
+  119   C06C07C08C09C10C11C12C13C14C16C19C20C21C22C23C24C25
+        C26C27C28C29C30C32C33C34C35C36C37C38C39C40C41C42C43
+        C44C45C46E02E03E04E05E07E08E09E10E11E12E13E14E15E18
+        E19E21E24E25E26E27E30E31E33E34E36G01G02G03G04G05G06
+        G07G08G09G10G11G12G13G14G15G16G17G18G19G20G21G22G23
+        G24G25G26G27G28G29G30G31G32J02J03J04R01R02R03R04R05
+        R07R08R09R11R12R13R14R15R16R17R18R19R20R21R22R24R26
++         7  8  9  8  8  6  6  8  7  7  7  7  8  8  6  8  7
++         7  6  6  7  6  5  7  7 11  8  7  8 11  7  6  7  7
++         8  7  6  6  6  7  7  6  6  6  7  6  6  7  6  7  6
++         7  6  6  7  8  6  6  7  7  8  6  6  6  6  6  6  6
++         5  7  6  6  6  5  6  6  6  6  6  5  6  6  6  6  6
++         5  5  6  5  7  6  6  7  6  8  0  6  6  6  7  7  6
++         6  7  7  6  7  6  6  6  6  8  7  6  7  7  7  7  5
%c M  cc GPS ccc cccc cccc cccc cccc ccccc ccccc ccccc ccccc
%c cc cc ccc ccc cccc cccc cccc cccc ccccc ccccc ccccc ccccc
%f  0.0000000  0.000000000  0.00000000000  0.000000000000000
%f  0.0000000  0.000000000  0.00000000000  0.000000000000000
%i    0    0    0    0      0      0      0      0         0
%i    0    0    0    0      0      0      0      0         0
/* INFORMATION & ANALYSIS CENTER (IAC)      ULTRA-RAPID DATA
/* S/V CLOCKS ARE ALIGNED TO GNSS TIME                      
/* G:C1WC2W R:C1PC2P E:C1XC5X C:C2IC6I J:C1CC2S             
/* PCV:IGS20_2290 OL/AL:FES2004  NONE     YN ORB:CoN CLK:CoN
*  2024 03 05 18  0  0.00000000
PC06  -9215.778523  40850.996751   6198.488258    252.890480
PC07  -6347.398844  27413.364282 -31287.283177   -907.755456
PC08 -19976.344174  25868.839581  26508.940285    -13.154526
PC09  -5821.524531  42065.174678  -1368.537257   -579.832697
PC10   1978.062436  29731.907286 -29341.339326     57.774578
PC11 -15714.289979 -11620.256128 -19853.061954    444.506458
PC12  -8790.013046 -26016.303036  -4908.223395   -206.790518
PC13 -10753.207542  26585.962908  30964.391397    422.670057
PC14 -26543.886195  -8663.804481   -964.864815    337.976787
PC16 -11380.300173  39622.691847   9938.817126   -378.600608
PC19  26562.496639   2258.988777  -8176.053692   -921.397607
PC20  23166.746669  13009.786462   8492.948735   -227.224259
PC21  -5367.587742 -16871.976406 -21557.051521   -961.431467
PC22  14858.411848 -10451.121126 -21172.626944    -85.730040
PC23 -20094.881493  19355.021968   -455.290782   -777.555923
PC24 -11686.889808 -11427.201533  22596.877757    944.559508
PC25 -22356.666823   6540.278589  15337.979849    342.177367
PC26   5008.086836 -21805.668175  16678.356041   -258.533072
PC27   3517.755322  27443.065401  -3722.764170    280.464400
PC28  -7932.505929  20289.476393 -17439.051485    213.720439
PC29  16533.968820    723.548967  22463.359831    250.575055
PC30  14427.399001  20481.455745  12310.711807    -33.875097
PC32   5339.231470  16838.786533  21619.232234   -577.987208
PC33 -26627.537054  -2120.585472   8122.291156   -954.616892
PC34 -15014.788696 -19197.705562 -13582.478799    383.616594
PC35   7332.867475 -20440.599922  17488.933172    418.237670
PC36  22416.520856  -5672.862426 -15616.546694      8.059362
PC37  -5816.060522  21770.620037 -16441.977600   -941.650444
PC38 -25571.207852  27315.632078  19357.878129    140.880191
PC39 -12629.157413  37041.072949  16046.990210     -7.435457
PC40 -10129.579409  21456.760735 -34838.827892    -59.426491
PC41 -15649.267353  10096.734682  20846.465233   -900.641858
PC42 -22250.343506 -13646.007596  -9867.861911   -449.076036
PC43 -16798.137729  -1741.775326 -22222.883654     62.974362
PC44  -4457.935915 -27258.462121   3832.087495    404.282713
PC45  20098.405651 -19369.687365    585.271880    -73.996477
PC46  12377.988805  10599.637364 -22667.009047   -129.195210
PE02 -12737.450544  16678.710513 -20878.467577    108.764213
PE03  -1892.185139  20735.799538  21035.758135    -98.228699
PE04 -15052.293121 -24756.043505  -6051.919119   -342.651216
PE05 -17432.855265   4677.791268  23468.200824   4726.252447
PE07  22864.874346  14572.422629 -11856.125603   -107.269401
PE08  14563.255652  24854.980628   6787.627182   -234.191581
PE09 -22821.591486 -14703.024596  11818.582352   -359.694235
PE10  -9631.780504 -16210.919456 -22818.808222   -606.997674
PE11 -15197.509860  -5219.749999 -24866.034565   3199.005354
PE12  -3308.228643 -23597.252071 -17544.882468   -935.167747
PE13  14839.811178   5957.567787  24914.356147    -20.417141
PE14 -24659.145940  -4444.600492 -19900.559357     57.996369
PE15   2876.981622  23946.412097  17177.744981    -89.517184
PE18  14621.697482  -6834.784533  18683.210423    401.424941
PE19   3847.473469 -19324.300171 -22076.781720   -489.594226
PE21  27397.623651  -9120.374297   6513.813077   -582.391918
PE24 -26443.744418  -4460.592902  12480.853808   -634.576687
PE25 -27548.577492   8895.367036  -6156.577946      1.733148
PE26  17975.773353 -15757.151247  17458.838928    387.790675
PE27  26653.954491   4119.874546 -12218.201426   -291.190825
PE30   9955.391583  14937.686208 -23555.967348    -64.192079
PE31 -10196.308287 -14779.389646  23529.433100    -17.538985
PE33  10919.052007 -27490.760610   1059.975938      8.579941
PE34 -10547.985447  27653.321382   -512.090427    -98.296933
PE36 -17938.435189  15237.296282 -17956.518188   -195.067651
PG01  11670.854868 -23197.621720   4320.412711    172.463006
PG02  14447.770006 -17596.253324  13944.980703   -475.105444
PG03  20157.713995 -12148.306550 -12336.707425    234.025294
PG04  10589.442616 -10903.057505 -21756.505395    307.708760
PG05 -25971.260112   5772.679176   -660.304324   -164.275134
PG06  -8431.437585 -15198.068950 -19980.442872    380.547599
PG07   4087.608029 -25330.447590   6302.250348    -77.364654
PG08  16872.415739  -2909.769253  20309.221920     32.963431
PG09  -2216.053492 -20298.060293 -17035.863035    114.324880
PG10  12198.625701  11762.937970  20742.972277      0.711320
PG11 -14966.659033  -2978.966542 -21711.071036   -597.280475
PG12 -21336.153250  10802.171440 -11773.047279   -484.329997
PG13 -18756.860087  -7514.891568  17152.271574    631.482364
PG14  -7895.722436 -14132.842842  21107.784517    342.821642
PG15 -16566.344892   4967.817947  19718.451596    134.523135
PG16  26255.049288   1254.705848  -5587.464358   -348.012772
PG17 -11574.124035 -22938.004755   6824.174721    714.766766
PG18  -4266.524567  25177.009994   6957.537542   -569.475301
PG19 -16937.327985 -20484.046239  -3288.971847    449.799490
PG20 -23172.148413   -893.970234 -12743.986162    385.045736
PG21  15699.672837 -12129.965995  17620.865190    132.507584
PG22 -15264.842776 -11603.608598  18680.171808     20.680551
PG23  -1673.176047  15305.067183  21642.003626    170.428825
PG24 -14825.038995  16174.537644  14262.503937   -441.942314
PG25 -11387.047653  15736.243172 -18335.040628    490.488610
PG26  20959.927703   6224.318022 -15473.219701    182.997326
PG27  20816.644426   9508.159820  13559.758070     -9.478897
PG28   7815.591734  17674.218814 -18240.644187   -153.721118
PG29  -1072.041803  19374.204495 -18141.091749   -605.548730
PG30  -4028.484672 -21589.305912  14877.304231   -423.845494
PG31  13440.448649   7902.335903 -21683.787431   -227.932364
PG32  15341.842278  21512.282879   3844.307158   -614.693265
PJ02 -34092.681123  15912.747373 -14374.756778     -2.607606
PJ03      0.000000      0.000000      0.000000     -0.217427
PJ04 -26121.857393  27312.812914  24533.034766 999999.999999
PR01 -11159.080152 -14658.443755 -17642.589860     78.894316
PR02 -21995.474447 -12673.651860  -2066.359415    -22.545736
PR03 -20702.361444  -2918.579240  14624.422056     95.804909
PR04  -8066.819831   7772.258801  22950.703335    226.270522
PR05   8817.760346  14615.686382  18981.807221    127.947006
PR07  20354.689034   2487.147065 -15158.673785     77.283402
PR08   7860.996779  -8012.510694 -22842.323873    -74.655582
PR09  13876.900899   3157.531515 -21135.055598    173.655684
PR11  18516.531067 -16160.575651   6804.915769     32.235311
PR12   2873.223408 -14001.675042  21148.870873     37.463265
PR13 -11822.157770  -4848.187484  22055.682798    -45.005442
PR14 -21949.919974   9220.274567   9187.099032     26.179899
PR15 -17795.910257  16324.453432  -8209.615398     81.616555
PR16  -3175.107699  14023.108292 -21075.291905     23.781342
PR17 -10306.082378   4186.238416 -22943.742384     66.502929
PR18  -6060.918928  19882.482744 -14811.944941    130.638036
PR19   -309.774531  25497.749646   -763.022842   -268.262952
PR20   8114.673298  15897.540402  18254.393327   -109.306956
PR21  10237.946130  -4350.411547  22956.227688    -82.173096
PR22   6488.522165 -20390.764909  13897.209294    111.302449
PR24  -9287.541552 -14991.084899 -18416.675675    -46.585282
PR26   8734.864023  -7522.701957 -22726.517377 999999.999999
EOF
